satname,norad_id,inclination_deg,eccentricity,mean_motion_rev_per_day,perigee_km,apogee_km,l1,l2
STARLINK-1008,44714,53.0527,0.0001319,15.06404637,546.2838946373149,548.1107978378523,1 44714U 19074B   25258.28374125  .00002513  00000+0  18752-3 0  9991,2 44714  53.0527 254.0488 0001319  92.5847 267.5293 15.06404637322315
STARLINK-1010,44716,53.0504,0.0010467,15.76840424,332.36789053305347,346.4303806793323,1 44716U 19074D   25258.55997873  .00126510  00000+0  75928-3 0  9996,2 44716  53.0504 204.5529 0010467  36.7584 323.4151 15.76840424323018
STARLINK-1011,44717,53.0509,0.0006505,15.66566708,364.3478443567492,373.12552702183166,1 44717U 19074E   25258.58341435  .00173333  00000+0  15969-2 0  9990,2 44717  53.0509 257.8695 0006505  27.9444  93.9397 15.66566708  5886
STARLINK-1012,44718,53.0536,0.000127,15.0640223,546.3252049190269,548.0842417167496,1 44718U 19074F   25258.26160716  .00001188  00000+0  98593-4 0  9991,2 44718  53.0536 254.1482 0001270  86.0862 274.0272 15.06402230322301
STARLINK-1015,44721,53.0444,0.0001684,15.96105915,284.11253631931777,286.3567598903983,1 44721U 19074J   25258.58341435  .00385739  71043-4  92016-3 0  9999,2 44721  53.0444 192.7939 0001684  33.3271 145.4770 15.96105915  6060
STARLINK-1017,44723,53.0585,0.0003915,15.10726428,531.2772389775027,536.6894291990939,1 44723U 19074L   25258.36345502  .00044822  00000+0  26739-2 0  9999,2 44723  53.0585 252.3266 0003915 357.4246   2.6724 15.10726428322344
STARLINK-1019,44724,53.0538,0.0001311,15.06402664,546.2954810484516,548.1113052995415,1 44724U 19074M   25258.39063365  .00002292  00000+0  17269-3 0  9991,2 44724  53.0538 253.5685 0001311  87.9084 272.2055 15.06402664322322
STARLINK-1020,44725,53.0533,0.0001242,15.06407205,546.3293501907146,548.0496012872882,1 44725U 19074N   25258.32979404  .00000441  00000+0  48503-4 0  9995,2 44725  53.0533 273.8409 0001242  96.2858 263.8273 15.06407205322034
STARLINK-1021,44726,53.0484,0.0002861,15.90316423,299.48568670988425,303.30771589376945,1 44726U 19074P   25258.58341435  .00355649  58101-4  11516-2 0  9996,2 44726  53.0484 198.5090 0002861  19.9027 300.4647 15.90316423  6055
STARLINK-1029,44734,53.0503,0.0007427,15.84626543,312.4037493962742,322.3492651599854,1 44734U 19074X   25258.58341435  .00321547  00000+0  13173-2 0  9996,2 44734  53.0503 122.1381 0007427 101.3628 195.1589 15.84626543  5949
STARLINK-1030,44735,53.0372,0.0002153,16.1060294,243.76378218211175,246.6157866954909,1 44735U 19074Y   25255.35055681  .00673713  25518-3  67197-3 0  9990,2 44735  53.0372 231.4475 0002153 149.7567 210.3591 16.10602940322367
STARLINK-1031,44736,53.0552,0.0007356,15.36933049,450.1582353611675,460.2114184328984,1 44736U 19074Z   25258.45382795  .00114516  00000+0  30862-2 0  9998,2 44736  53.0552 254.1785 0007356 356.6427   3.4525 15.36933049322337
STARLINK-1036,44741,53.0535,0.0001134,15.06392613,546.448861028005,548.0195352157398,1 44741U 19074AE  25258.42564036  .00000310  00000+0  39717-4 0  9997,2 44741  53.0535 273.4126 0001134  88.8974 271.2145 15.06392613322051
STARLINK-1039,44744,53.0527,0.0004677,15.0918407,535.4569035539816,541.9269053111866,1 44744U 19074AH  25258.36601263  .00045500  00000+0  28311-2 0  9993,2 44744  53.0527 293.1084 0004677 328.3724  31.6985 15.09184070321774
STARLINK-1042,44747,53.0463,0.0003165,15.40693566,441.90191495934505,446.22036638239024,1 44747U 19074AL  25258.56950000  .00018684  00000+0  45942-3 0  9997,2 44747  53.0463 209.1756 0003165  20.0704 340.0424 15.40693566322994
STARLINK-1043,44748,53.0532,0.0001211,15.06410125,546.3418704929036,548.0191823978093,1 44748U 19074AM  25258.39798515 -.00000561  00000+0 -18746-4 0  9990,2 44748  53.0532 293.5368 0001211  87.7948 272.3180 15.06410125321779
STARLINK-1046,44751,53.0532,0.0001358,15.06397615,546.2784043025949,548.1593309562431,1 44751U 19074AQ  25258.08100242  .00001326  00000+0  10791-3 0  9993,2 44751  53.0532 294.9609 0001358  86.5094 273.6050 15.06397615321720
STARLINK-1047,44752,53.0711,0.0005055,15.27902416,478.61599468806435,485.55167795358557,1 44752U 19074AR  25258.33669639  .00024405  00000+0  89378-3 0  9992,2 44752  53.0711 242.3387 0005055  43.7950 316.3449 15.27902416322490
STARLINK-1048,44753,53.056,0.000162,15.06397967,546.095881321693,548.339696273264,1 44753U 19074AS  25258.37218899  .00000525  00000+0  54150-4 0  9993,2 44753  53.0560 253.6528 0001620  85.0408 275.0766 15.06397967322327
STARLINK-1053,44758,53.0405,0.0003544,15.54707483,400.5998374636956,405.4063095477968,1 44758U 19074AX  25258.33841564  .00071294  00000+0  10533-2 0  9991,2 44758  53.0405 228.9198 0003544  62.6768 297.4603 15.54707483322683
STARLINK-1054,44759,53.0458,0.0011094,15.63616683,369.7256985445856,384.7144848596545,1 44759U 19074AY  25258.58341435  .00211702  00000+0  21777-2 0  9993,2 44759  53.0458 257.8122 0011094 355.0881 160.4670 15.63616683  5978
STARLINK-1056,44761,53.0434,0.0010941,15.75344157,336.29771161700864,351.00633035272676,1 44761U 19074BA  25258.58341435  .00079839  00000+0  51590-3 0  9996,2 44761  53.0434 247.7144 0010941  19.8809 142.5377 15.75344157  5660
STARLINK-1057,44762,53.042,0.0003291,15.92470243,293.17636678233976,297.568870813433,1 44762U 19074BB  25258.58341435  .00338428  54746-4  98087-3 0  9992,2 44762  53.0420 219.2757 0003291  32.9692 324.2684 15.92470243  6055
STARLINK-1060,44765,53.054,0.0001354,15.25189407,489.286764739516,491.1467149322634,1 44765U 19074BE  25258.58341435  .01763101  00000+0  63323-1 0  9998,2 44765  53.0540 271.7128 0001354 100.9979  26.2193 15.25189407  5832
STARLINK-1063,44768,53.054,0.000149,15.06398682,546.1837198843805,548.2474749584107,1 44768U 19074BH  25258.60072029  .00002457  00000+0  18381-3 0  9999,2 44768  53.0540 292.6252 0001490  90.1869 269.9291 15.06398682321814
STARLINK-1067,44771,53.0536,0.0001379,15.06401628,546.2515634791689,548.1615732353212,1 44771U 19074BL  25258.12522624 -.00000247  00000+0  23115-5 0  9990,2 44771  53.0536 294.7620 0001379  70.3033 289.8105 15.06401628321735
STARLINK-1068,44772,53.0539,0.0001458,15.06398838,546.2054029642131,548.2248356422024,1 44772U 19074BM  25258.31505804  .00002247  00000+0  16967-3 0  9999,2 44772  53.0539 273.9081 0001458  86.1691 273.9465 15.06398838322037
STARLINK-1112,44925,53.0547,0.0004637,15.45251691,427.4813990775574,433.7958575952762,1 44925U 20001M   25258.60672529  .00025652  00000+0  53784-3 0  9995,2 44925  53.0547  24.4469 0004637 136.5158 223.6215 15.45251691313858
STARLINK-1114,44927,53.056,0.0001286,15.06390226,546.350910325632,548.1321176794345,1 44927U 20001P   25258.61915034  .00000536  00000+0  54875-4 0  9996,2 44927  53.0560  52.5418 0001286  87.0043 273.1094 15.06390226313468
STARLINK-1123,44930,53.0564,0.0001347,15.06398537,546.2831967714619,548.1488868809311,1 44930U 20001S   25258.43484773 -.00001154  00000+0 -58585-4 0  9992,2 44930  53.0564  53.3682 0001347  92.7776 267.3368 15.06398537313431
STARLINK-1144,44933,53.0503,0.0010481,15.49061531,412.345577808921,426.59472191646273,1 44933U 20001V   25258.55647300  .00133565  00000+0  23848-2 0  9997,2 44933  53.0503   3.3510 0010481 274.5262  85.4548 15.49061531315441
STARLINK-1071,44934,53.0342,0.0007221,16.2490163,201.52232561294113,211.0315362119636,1 44934U 20001W   25258.06999302  .02466582  11969-4  82932-3 0  9997,2 44934  53.0342 330.4113 0007221 351.2862   8.8052 16.24901630314550
STARLINK-1091,44940,53.0446,0.0004559,15.73688617,345.298852759729,351.43207770752906,1 44940U 20001AC  25258.58341435  .00126222  00000+0  87135-3 0  9990,2 44940  53.0446 349.8499 0004559 278.4266 307.8443 15.73688617  5915
STARLINK-1094,44941,53.0582,0.0001521,15.06411376,546.1233521435288,548.2300325687438,1 44941U 20001AD  25258.58043913  .00001439  00000+0  11544-3 0  9994,2 44941  53.0582  32.7151 0001521 123.3806 236.7329 15.06411376313731
STARLINK-1096,44942,52.9932,0.0002918,15.74636429,343.7039582770831,347.62796968686325,1 44942U 20001AE  25258.50204054  .00105333  00000+0  70065-3 0  9993,2 44942  52.9932 176.9631 0002918 113.5861 246.5463 15.74636429316730
STARLINK-1122,44949,53.0571,0.0001154,15.06395857,546.425068976775,548.0234423545826,1 44949U 20001AM  25258.60255744 -.00000729  00000+0 -30089-4 0  9991,2 44949  53.0571  32.6148 0001154  87.9377 272.1745 15.06395857313733
STARLINK-1066,44954,53.0406,9.5e-05,16.09386853,247.89631599107634,249.15538193237808,1 44954U 20001AS  25258.60863919  .00912291  47936-3  98853-3 0  9995,2 44954  53.0406 314.3111 0000950 343.1630 138.6188 16.09386853314747
STARLINK-1080,44961,53.0557,0.0001059,15.06391747,546.503455219151,547.9702494010708,1 44961U 20001AZ  25258.60071743  .00000849  00000+0  75902-4 0  9994,2 44961  53.0557  12.6238 0001059  98.2601 261.8508 15.06391747314027
STARLINK-1090,44968,53.0561,0.0001095,15.06419562,546.3932847723963,547.9099229766443,1 44968U 20001BG  25258.60440301  .00004611  00000+0  32805-3 0  9996,2 44968  53.0561  12.6100 0001095  88.4371 271.6743 15.06419562314028
STARLINK-1107,44972,53.0147,0.000763,15.54195979,399.3156816653309,409.6659717288712,1 44972U 20001BL  25257.41461540  .00052292  00000+0  79017-3 0  9991,2 44972  53.0147 310.7921 0007630  25.8542 334.2847 15.54195979314782
STARLINK-1132,45044,53.0556,0.0001307,15.06411413,546.271440473125,548.0817174426638,1 45044U 20006A   25258.49751071  .00004369  00000+0  31192-3 0  9991,2 45044  53.0556 333.0884 0001307  79.0476 281.0661 15.06411413310336
STARLINK-1131,45047,53.0569,0.0001098,15.06399334,546.453195637323,547.9740026288919,1 45047U 20006D   25258.53996671  .00000199  00000+0  32269-4 0  9990,2 45047  53.0569 353.4358 0001098 100.9860 259.1252 15.06399334310051
STARLINK-1134,45048,53.0474,0.0006786,15.22955159,492.26714500543767,501.59798942206,1 45048U 20006E   25258.48210909  .00032730  00000+0  13831-2 0  9996,2 45048  53.0474 337.6218 0006786 352.0797   8.0091 15.22955159310271
